KUIPER-00044            
1 64505U 25134F   25254.45855364  .00002871  00000+0  40559-3 0  9996
2 64505  51.8988 319.1586 0014442  41.9695 318.2371 14.79899781 13342
KUIPER-00046            
1 64506U 25134G   25254.91670139 -.00009216  00000+0 -11371-2 0  9994
2 64506  51.8990 313.4938 0012445  56.0801 258.6154 14.81447486  5836
KUIPER-00047            
1 64507U 25134H   25254.42769707  .00029776  00000+0  85657-3 0  9991
2 64507  51.8623 305.8621 0012239  53.9833 306.2286 15.35471473 13520
KUIPER-00048            
1 64508U 25134J   25254.12450455  .00024791  00000+0  66345-3 0  9991
2 64508  51.8770 306.2154 0006500  40.2460 319.9007 15.37874097 13498
KUIPER-00049            
1 64509U 25134K   25254.91670139  .00016923  00000+0  76100-3 0  9990
2 64509  51.8754 303.8410 0009027  31.1781  56.5400 15.21188746  4517
KUIPER-00050            
1 64510U 25134L   25254.91670139 -.00025615  00000+0 -12878-2 0  9993
2 64510  51.8769 304.7396 0008530  67.6542 307.2094 15.16438208  5741
KUIPER-00051            
1 64511U 25134M   25254.91670139 -.00008950  00000+0 -33347-3 0  9992
2 64511  51.8793 303.5160 0006879  20.5895 193.2492 15.25667026  4463
KUIPER-00052            
1 64512U 25134N   25254.72077909  .00083186  00000+0  11295-2 0  9997
2 64512  51.8740 297.5540 0007851  50.0600 310.1084 15.56873357 13662
